NORAD_CAT_ID,OBJECT_NAME,OBJECT_TYPE,EPOCH,MEAN_MOTION,ECCENTRICITY,INCLINATION,RA_OF_ASC_NODE,ARG_OF_PERICENTER,MEAN_ANOMALY,BSTAR,MEAN_MOTION_DOT,MEAN_MOTION_DDOT,TLE_LINE0,TLE_LINE1,TLE_LINE2,SEMIMAJOR_AXIS,PERIOD,APOGEE,PERIGEE,DECAYED
54067.0,STARLINK-5174,PAYLOAD,2024-06-29 09:09:23,15.08841563,0.0001408,53.2166,239.5883,94.2424,265.8729,5.225e-05,5.44e-06,0.0,0 STARLINK-5174,1 54067U 22136S   24181.38152738  .00000544  00000-0  52250-4 0  9990,2 54067  53.2166 239.5883 0001408  94.2424 265.8729 15.08841563 93500,6917.876,95.437,540.715,538.767,0.0
54067.0,STARLINK-5174,PAYLOAD,2024-06-29 20:17:06,15.08839637,0.0001414,53.2169,237.5071,93.9629,266.1525,4.2654e-05,3.91e-06,0.0,0 STARLINK-5174,1 54067U 22136S   24181.84520933  .00000391  00000-0  42654-4 0  9994,2 54067  53.2169 237.5071 0001414  93.9629 266.1525 15.08839637 93574,6917.881,95.438,540.725,538.768,0.0
54067.0,STARLINK-5174,PAYLOAD,2024-06-30 04:14:02,15.08833886,0.0001528,53.2161,236.0233,98.0987,262.0178,-4.2179e-05,-9.59e-06,0.0,0 STARLINK-5174,1 54067U 22136S   24182.17641816 -.00000959  00000-0 -42179-4 0  9999,2 54067  53.2161 236.0233 0001528  98.0987 262.0178 15.08833886 94108,6917.899,95.438,540.821,538.707,0.0
54067.0,STARLINK-5174,PAYLOAD,2024-06-30 13:46:21,15.08834489,0.0001397,53.2165,234.2374,88.8917,271.2235,-6.6847e-06,-3.94e-06,0.0,0 STARLINK-5174,1 54067U 22136S   24182.57385758 -.00000394  00000-0 -66847-5 0  9995,2 54067  53.2165 234.2374 0001397  88.8917 271.2235 15.08834489 93680,6917.897,95.438,540.729,538.796,0.0
54067.0,STARLINK-5174,PAYLOAD,2024-06-30 20:07:53,15.08835764,0.0001378,53.2166,233.0479,87.0178,273.0972,2.2674e-05,7.3e-07,0.0,0 STARLINK-5174,1 54067U 22136S   24182.83881686  .00000073  00000-0  22674-4 0  9996,2 54067  53.2166 233.0479 0001378  87.0178 273.0972 15.08835764 93723,6917.893,95.438,540.712,538.805,0.0
54067.0,STARLINK-5174,PAYLOAD,2024-07-01 04:04:49,15.08839382,0.0001293,53.2161,231.5605,85.5751,274.5389,6.5266e-05,7.51e-06,0.0,0 STARLINK-5174,1 54067U 22136S   24183.17001420  .00000751  00000-0  65266-4 0  9991,2 54067  53.2161 231.5605 0001293  85.5751 274.5389 15.08839382 94255,6917.882,95.438,540.642,538.853,0.0
54067.0,STARLINK-5174,PAYLOAD,2024-07-01 13:37:07,15.08847166,0.0001543,53.2162,229.7767,111.6027,248.513,0.00015079,2.113e-05,0.0,0 STARLINK-5174,1 54067U 22136S   24183.56744685  .00002113  00000-0  15079-3 0  9991,2 54067  53.2162 229.7767 0001543 111.6027 248.5130 15.08847166 93836,6917.858,95.437,540.791,538.656,0.0
54067.0,STARLINK-5174,PAYLOAD,2024-07-01 19:58:40,15.08842462,0.0001067,53.2141,228.5867,84.1695,275.9419,0.00010006,1.305e-05,0.0,0 STARLINK-5174,1 54067U 22136S   24183.83241150  .00001305  00000-0  10006-3 0  9997,2 54067  53.2141 228.5867 0001067  84.1695 275.9419 15.08842462 93879,6917.873,95.437,540.476,539.0,0.0
54067.0,STARLINK-5174,PAYLOAD,2024-07-02 11:52:32,15.08835987,0.0001417,53.2164,225.6121,82.3222,277.7931,0.00010992,1.462e-05,0.0,0 STARLINK-5174,1 54067U 22136S   24184.49481920  .00001462  00000-0  10992-3 0  9999,2 54067  53.2164 225.6121 0001417  82.3222 277.7931 15.08835987 94458,6917.893,95.438,540.738,538.777,0.0
54067.0,STARLINK-5174,PAYLOAD,2024-07-02 13:27:55,15.08836764,0.0001292,53.2157,225.3154,88.0272,272.0868,0.00011455,1.535e-05,0.0,0 STARLINK-5174,1 54067U 22136S   24184.56105783  .00001535  00000-0  11455-3 0  9993,2 54067  53.2157 225.3154 0001292  88.0272 272.0868 15.08836764 93980,6917.89,95.438,540.649,538.861,0.0
54067.0,STARLINK-5174,PAYLOAD,2024-07-03 19:40:14,15.08842268,0.0001369,53.2166,219.6651,87.6879,272.427,2.1562e-05,5.5e-07,0.0,0 STARLINK-5174,1 54067U 22136S   24185.81961715  .00000055  00000-0  21562-4 0  9994,2 54067  53.2166 219.6651 0001369  87.6879 272.4270 15.08842268 94653,6917.873,95.437,540.686,538.791,0.0
54067.0,STARLINK-5174,PAYLOAD,2024-07-04 08:23:19,15.08843604,0.0001268,53.216,217.2856,90.9656,269.1482,8.0014e-05,9.86e-06,0.0,0 STARLINK-5174,1 54067U 22136S   24186.34953425  .00000986  00000-0  80014-4 0  9992,2 54067  53.2160 217.2856 0001268  90.9656 269.1482 15.08843604 94255,6917.869,95.437,540.612,538.857,0.0
54067.0,STARLINK-5174,PAYLOAD,2024-07-04 19:31:01,15.08844033,0.0001265,53.2161,215.2039,90.9559,269.1578,8.3768e-05,1.046e-05,0.0,0 STARLINK-5174,1 54067U 22136S   24186.81321303  .00001046  00000-0  83768-4 0  9995,2 54067  53.2161 215.2039 0001265  90.9559 269.1578 15.08844033 94327,6917.868,95.437,540.608,538.858,0.0
54067.0,STARLINK-5174,PAYLOAD,2024-07-05 01:52:34,15.08840558,0.0001274,53.2159,214.0157,87.531,272.5828,8.7661e-05,1.108e-05,0.0,0 STARLINK-5174,1 54067U 22136S   24187.07817525  .00001108  00000-0  87661-4 0  9995,2 54067  53.2159 214.0157 0001274  87.5310 272.5828 15.08840558 94840,6917.879,95.438,540.625,538.862,0.0
54067.0,STARLINK-5174,PAYLOAD,2024-07-05 08:14:06,15.08843728,0.0001257,53.2158,212.8262,88.2862,271.8274,7.512e-05,9.08e-06,0.0,0 STARLINK-5174,1 54067U 22136S   24187.34313310  .00000908  00000-0  75120-4 0  9992,2 54067  53.2158 212.8262 0001257  88.2862 271.8274 15.08843728 94404,6917.869,95.437,540.604,538.864,0.0
54067.0,STARLINK-5174,PAYLOAD,2024-07-06 04:54:07,15.08837786,0.0001274,53.2153,208.9602,89.2116,270.9022,-2.8787e-06,-3.34e-06,0.0,0 STARLINK-5174,1 54067U 22136S   24188.20425874 -.00000334  00000-0 -28787-5 0  9990,2 54067  53.2153 208.9602 0001274  89.2116 270.9022 15.08837786 95011,6917.887,95.438,540.633,538.871,0.0
54067.0,STARLINK-5174,PAYLOAD,2024-07-06 08:04:54,15.08837316,0.0001272,53.2155,208.3667,84.8084,275.3053,-1.4766e-05,-5.23e-06,0.0,0 STARLINK-5174,1 54067U 22136S   24188.33673943 -.00000523  00000-0 -14766-4 0  9997,2 54067  53.2155 208.3667 0001272  84.8084 275.3053 15.08837316 94551,6917.889,95.438,540.634,538.874,0.0
54067.0,STARLINK-5174,PAYLOAD,2024-07-07 07:55:41,15.08837324,0.0001291,53.2158,203.9065,85.1461,274.9678,6.4995e-06,-1.84e-06,0.0,0 STARLINK-5174,1 54067U 22136S   24189.33033909 -.00000184  00000-0  64995-5 0  9992,2 54067  53.2158 203.9065 0001291  85.1461 274.9678 15.08837324 95188,6917.889,95.438,540.647,538.86,0.0
54067.0,STARLINK-5174,PAYLOAD,2024-07-08 07:46:28,15.08839842,0.0001289,53.216,199.445,82.0346,278.0792,8.9558e-05,1.138e-05,0.0,0 STARLINK-5174,1 54067U 22136S   24190.32393613  .00001138  00000-0  89558-4 0  9994,2 54067  53.2160 199.4450 0001289  82.0346 278.0792 15.08839842 94855,6917.881,95.438,540.638,538.854,0.0
54067.0,STARLINK-5174,PAYLOAD,2024-07-08 17:18:47,15.08837312,0.0001289,53.2158,197.6608,81.0899,279.0239,6.086e-05,6.81e-06,0.0,0 STARLINK-5174,1 54067U 22136S   24190.72137916  .00000681  00000-0  60860-4 0  9997,2 54067  53.2158 197.6608 0001289  81.0899 279.0239 15.08837312 95396,6917.889,95.438,540.645,538.862,0.0
54067.0,STARLINK-5174,PAYLOAD,2024-07-09 10:48:01,15.08837844,0.0001313,53.216,194.3898,81.4643,278.6497,4.0195e-05,3.52e-06,0.0,0 STARLINK-5174,1 54067U 22136S   24191.45002057  .00000352  00000-0  40195-4 0  9999,2 54067  53.2160 194.3898 0001313  81.4643 278.6497 15.08837844 95024,6917.887,95.438,540.66,538.844,0.0
54067.0,STARLINK-5174,PAYLOAD,2024-07-10 04:17:17,15.08831307,0.0001295,53.2155,191.1182,79.654,280.4598,-5.8497e-05,-1.219e-05,0.0,0 STARLINK-5174,1 54067U 22136S   24192.17867057 -.00001219  00000-0 -58497-4 0  9997,2 54067  53.2155 191.1182 0001295  79.6540 280.4598 15.08831307 95619,6917.907,95.438,540.668,538.876,0.0
54067.0,STARLINK-5174,PAYLOAD,2024-07-10 09:03:26,15.08832306,0.0001319,53.2155,190.2264,81.7542,278.3599,-4.9441e-05,-1.074e-05,0.0,0 STARLINK-5174,1 54067U 22136S   24192.37739041 -.00001074  00000-0 -49441-4 0  9998,2 54067  53.2155 190.2264 0001319  81.7542 278.3599 15.08832306 95160,6917.904,95.438,540.681,538.856,0.0
54067.0,STARLINK-5174,PAYLOAD,2024-07-10 17:00:22,15.08834669,0.0001321,53.2157,188.7399,87.3368,272.7776,-2.339e-06,-3.25e-06,0.0,0 STARLINK-5174,1 54067U 22136S   24192.70858844 -.00000325  00000-0 -23390-5 0  9992,2 54067  53.2157 188.7399 0001321  87.3368 272.7776 15.08834669 95219,6917.897,95.438,540.676,538.848,0.0
54067.0,STARLINK-5174,PAYLOAD,2024-07-11 04:08:03,15.08835934,0.0001291,53.2155,186.6575,88.8889,271.2251,3.7443e-05,3.08e-06,0.0,0 STARLINK-5174,1 54067U 22136S   24193.17226769  .00000308  00000-0  37443-4 0  9991,2 54067  53.2155 186.6575 0001291  88.8889 271.2251 15.08835934 95768,6917.893,95.438,540.651,538.865,0.0
54067.0,STARLINK-5174,PAYLOAD,2024-07-11 07:18:50,15.08837141,0.000135,53.2157,186.063,88.3576,271.7571,5.867e-05,6.46e-06,0.0,0 STARLINK-5174,1 54067U 22136S   24193.30474678  .00000646  00000-0  58670-4 0  9990,2 54067  53.2157 186.0630 0001350  88.3576 271.7571 15.08837141 95302,6917.889,95.438,540.688,538.82,0.0
54067.0,STARLINK-5174,PAYLOAD,2024-07-12 05:34:13,15.08844531,0.0001339,53.2157,181.9004,88.2065,271.908,0.00014854,2.077e-05,0.0,0 STARLINK-5174,1 54067U 22136S   24194.23210036  .00002077  00000-0  14854-3 0  9994,2 54067  53.2157 181.9004 0001339  88.2065 271.9080 15.08844531 95926,6917.867,95.437,540.658,538.805,0.0
54067.0,STARLINK-5174,PAYLOAD,2024-07-12 08:44:59,15.08847545,0.0001373,53.2158,181.305,88.4002,271.7148,0.00017211,2.453e-05,0.0,0 STARLINK-5174,1 54067U 22136S   24194.36457750  .00002453  00000-0  17211-3 0  9992,2 54067  53.2158 181.3050 0001373  88.4002 271.7148 15.08847545 95463,6917.857,95.437,540.672,538.773,0.0
54067.0,STARLINK-5174,PAYLOAD,2024-07-12 16:41:55,15.08844452,0.000136,53.2158,179.8192,87.1072,273.0076,0.00012164,1.649e-05,0.0,0 STARLINK-5174,1 54067U 22136S   24194.69578091  .00001649  00000-0  12164-3 0  9998,2 54067  53.2158 179.8192 0001360  87.1072 273.0076 15.08844452 95516,6917.867,95.437,540.673,538.791,0.0
54067.0,STARLINK-5174,PAYLOAD,2024-07-13 08:35:46,15.08843238,0.0001491,53.2163,176.843,99.7521,260.364,3.4819e-05,2.66e-06,0.0,0 STARLINK-5174,1 54067U 22136S   24195.35818248  .00000266  00000-0  34819-4 0  9999,2 54067  53.2163 176.8430 0001491  99.7521 260.3640 15.08843238 96098,6917.87,95.437,540.767,538.704,0.0
